NORAD_CAT_ID,OBJECT_NAME,OBJECT_TYPE,EPOCH,MEAN_MOTION,ECCENTRICITY,INCLINATION,RA_OF_ASC_NODE,ARG_OF_PERICENTER,MEAN_ANOMALY,BSTAR,MEAN_MOTION_DOT,MEAN_MOTION_DDOT,TLE_LINE0,TLE_LINE1,TLE_LINE2,SEMIMAJOR_AXIS,PERIOD,APOGEE,PERIGEE,DECAYED
51118.0,STARLINK-3394,PAYLOAD,2023-05-01 17:37:32,15.08840801,5.69e-05,53.2168,291.1281,73.1417,286.9637,7.913e-05,9.72e-06,0.0,0 STARLINK-3394,1 51118U 22005Q   23121.73440104  .00000972  00000-0  79130-4 0  9999,2 51118  53.2168 291.1281 0000569  73.1417 286.9637 15.08840801 72533,6917.878,95.438,540.137,539.349,0.0
51118.0,STARLINK-3394,PAYLOAD,2023-05-02 17:28:18,15.08849571,5.38e-05,53.2167,286.6674,61.5733,298.5314,0.00013483,1.859e-05,0.0,0 STARLINK-3394,1 51118U 22005Q   23122.72799269  .00001859  00000-0  13483-3 0  9991,2 51118  53.2167 286.6674 0000538  61.5733 298.5314 15.08849571 72685,6917.851,95.437,540.088,539.344,0.0
51118.0,STARLINK-3394,PAYLOAD,2023-05-02 19:03:41,15.08852915,5.23e-05,53.217,286.37,63.0686,297.0359,0.00015705,2.214e-05,0.0,0 STARLINK-3394,1 51118U 22005Q   23122.79423008  .00002214  00000-0  15705-3 0  9998,2 51118  53.2170 286.3700 0000523  63.0686 297.0359 15.08852915 71581,6917.841,95.437,540.068,539.344,0.0
51118.0,STARLINK-3394,PAYLOAD,2023-05-03 14:08:20,15.08838492,6.45e-05,53.2162,282.8007,95.1557,264.9509,1.6695e-05,-2.2e-07,0.0,0 STARLINK-3394,1 51118U 22005Q   23123.58912063 -.00000022  00000-0  16695-4 0  9996,2 51118  53.2162 282.8007 0000645  95.1557 264.9509 15.08838492 71709,6917.885,95.438,540.196,539.304,0.0
51118.0,STARLINK-3394,PAYLOAD,2023-05-03 18:54:29,15.08840621,3.76e-05,53.2185,281.9075,94.487,265.6165,-4.6732e-05,-1.031e-05,0.0,0 STARLINK-3394,1 51118U 22005Q   23123.78784111 -.00001031  00000-0 -46732-4 0  9996,2 51118  53.2185 281.9075 0000376  94.4870 265.6165 15.08840621 72849,6917.878,95.438,540.004,539.483,0.0
51118.0,STARLINK-3394,PAYLOAD,2023-05-03 20:29:52,15.08842973,3.03e-05,53.219,281.6101,91.0917,269.011,-8.6592e-05,-1.665e-05,0.0,0 STARLINK-3394,1 51118U 22005Q   23123.85408011 -.00001665  00000-0 -86592-4 0  9997,2 51118  53.2190 281.6101 0000303  91.0917 269.0110 15.08842973 71745,6917.871,95.437,539.946,539.527,0.0
51118.0,STARLINK-3394,PAYLOAD,2023-05-04 13:59:07,15.08844571,6.44e-05,53.217,278.3405,66.9692,293.1368,3.8787e-06,-2.26e-06,0.0,0 STARLINK-3394,1 51118U 22005Q   23124.58272103 -.00000226  00000-0  38787-5 0  9994,2 51118  53.2170 278.3405 0000644  66.9692 293.1368 15.08844571 71853,6917.866,95.437,540.177,539.286,0.0
51118.0,STARLINK-3394,PAYLOAD,2023-05-04 20:20:39,15.08850015,5.13e-05,53.2167,277.1498,91.7752,268.3299,8.033e-05,9.91e-06,0.0,0 STARLINK-3394,1 51118U 22005Q   23124.84767430  .00000991  00000-0  80330-4 0  9993,2 51118  53.2167 277.1498 0000513  91.7752 268.3299 15.08850015 73002,6917.85,95.437,540.07,539.36,0.0
51118.0,STARLINK-3394,PAYLOAD,2023-05-05 13:49:54,15.08833068,7.19e-05,53.2156,273.8807,104.8231,255.2841,-2.6749e-05,-7.13e-06,0.0,0 STARLINK-3394,1 51118U 22005Q   23125.57632521 -.00000713  00000-0 -26749-4 0  9994,2 51118  53.2156 273.8807 0000719 104.8231 255.2841 15.08833068 73112,6917.902,95.438,540.264,539.269,0.0
51118.0,STARLINK-3394,PAYLOAD,2023-05-05 18:36:03,15.08841718,5.68e-05,53.2161,272.9909,91.6086,268.4971,8.3391e-05,1.04e-05,0.0,0 STARLINK-3394,1 51118U 22005Q   23125.77504245  .00001040  00000-0  83391-4 0  9995,2 51118  53.2161 272.9909 0000568  91.6086 268.4971 15.08841718 72035,6917.875,95.437,540.133,539.347,0.0
51118.0,STARLINK-3394,PAYLOAD,2023-05-06 15:16:04,15.08842421,6.3e-05,53.2158,269.1235,76.0768,284.0294,0.00010632,1.405e-05,0.0,0 STARLINK-3394,1 51118U 22005Q   23126.63616413  .00001405  00000-0  10632-3 0  9994,2 51118  53.2158 269.1235 0000630  76.0768 284.0294 15.08842421 72163,6917.873,95.437,540.174,539.302,0.0
51118.0,STARLINK-3394,PAYLOAD,2023-05-07 02:23:46,15.08846636,5.16e-05,53.2156,267.0425,105.0554,255.0495,0.00015302,2.149e-05,0.0,0 STARLINK-3394,1 51118U 22005Q   23127.09984113  .00002149  00000-0  15302-3 0  9995,2 51118  53.2156 267.0425 0000516 105.0554 255.0495 15.08846636 73342,6917.86,95.437,540.082,539.368,0.0
51118.0,STARLINK-3394,PAYLOAD,2023-05-07 13:31:28,15.08836225,6.08e-05,53.2153,264.9614,95.2354,264.8708,0.00011136,1.485e-05,0.0,0 STARLINK-3394,1 51118U 22005Q   23127.56352817  .00001485  00000-0  11136-3 0  9990,2 51118  53.2153 264.9614 0000608  95.2354 264.8708 15.08836225 72308,6917.892,95.438,540.178,539.336,0.0
51118.0,STARLINK-3394,PAYLOAD,2023-05-07 16:42:14,15.08840481,6.76e-05,53.2156,264.3657,89.7332,270.3738,0.00012649,1.726e-05,0.0,0 STARLINK-3394,1 51118U 22005Q   23127.69600647  .00001726  00000-0  12649-3 0  9999,2 51118  53.2156 264.3657 0000676  89.7332 270.3738 15.08840481 73430,6917.879,95.438,540.212,539.276,0.0
51118.0,STARLINK-3394,PAYLOAD,2023-05-08 16:33:01,15.08851615,6.3e-05,53.2159,259.9051,96.0961,264.0103,0.00020834,3.031e-05,0.0,0 STARLINK-3394,1 51118U 22005Q   23128.68959925  .00003031  00000-0  20834-3 0  9991,2 51118  53.2159 259.9051 0000630  96.0961 264.0103 15.08851615 72470,6917.845,95.437,540.146,539.274,0.0
51118.0,STARLINK-3394,PAYLOAD,2023-05-09 13:13:03,15.08836386,0.0001015,53.2174,256.0396,66.9306,293.1793,5.827e-05,6.4e-06,0.0,0 STARLINK-3394,1 51118U 22005Q   23129.55072982  .00000640  00000-0  58270-4 0  9996,2 51118  53.2174 256.0396 0001015  66.9306 293.1793 15.08836386 72605,6917.891,95.438,540.459,539.054,0.0
51118.0,STARLINK-3394,PAYLOAD,2023-05-10 11:28:27,15.08837211,6.46e-05,53.2154,251.8765,82.3834,277.7232,5.0287e-05,5.13e-06,0.0,0 STARLINK-3394,1 51118U 22005Q   23130.47809126  .00000513  00000-0  50287-4 0  9996,2 51118  53.2154 251.8765 0000646  82.3834 277.7232 15.08837211 72742,6917.889,95.438,540.201,539.307,0.0
51118.0,STARLINK-3394,PAYLOAD,2023-05-10 16:14:36,15.08846484,8.02e-05,53.217,250.982,100.2431,259.8651,9.486e-05,1.223e-05,0.0,0 STARLINK-3394,1 51118U 22005Q   23130.67680646  .00001223  00000-0  94860-4 0  9996,2 51118  53.2170 250.9820 0000802 100.2431 259.8651 15.08846484 73883,6917.861,95.437,540.28,539.171,0.0
51118.0,STARLINK-3394,PAYLOAD,2023-05-11 11:19:13,15.08843074,8.7e-05,53.2175,247.4136,101.2875,258.8215,0.00021521,3.139e-05,0.0,0 STARLINK-3394,1 51118U 22005Q   23131.47168840  .00003139  00000-0  21521-3 0  9993,2 51118  53.2175 247.4136 0000870 101.2875 258.8215 15.08843074 74009,6917.871,95.437,540.338,539.134,0.0
51118.0,STARLINK-3394,PAYLOAD,2023-05-11 12:54:36,15.0884589,8.76e-05,53.2175,247.1168,95.7341,264.3751,0.00021116,3.075e-05,0.0,0 STARLINK-3394,1 51118U 22005Q   23131.53792727  .00003075  00000-0  21116-3 0  9996,2 51118  53.2175 247.1168 0000876  95.7341 264.3751 15.08845890 72904,6917.862,95.437,540.333,539.121,0.0
51118.0,STARLINK-3394,PAYLOAD,2023-05-12 00:02:19,15.08841586,9.16e-05,53.2165,245.0355,81.4444,278.6652,0.00012654,1.727e-05,0.0,0 STARLINK-3394,1 51118U 22005Q   23132.00160906  .00001727  00000-0  12654-3 0  9996,2 51118  53.2165 245.0355 0000916  81.4444 278.6652 15.08841586 72972,6917.876,95.437,540.374,539.107,0.0
51118.0,STARLINK-3394,PAYLOAD,2023-05-13 12:36:10,15.08845441,6.13e-05,53.2151,238.2009,103.8613,256.2447,-1.772e-05,-5.7e-06,0.0,0 STARLINK-3394,1 51118U 22005Q   23133.52512548 -.00000570  00000-0 -17720-4 0  9994,2 51118  53.2151 238.2009 0000613 103.8613 256.2447 15.08845441 74316,6917.864,95.437,540.153,539.305,0.0
51118.0,STARLINK-3394,PAYLOAD,2023-05-14 14:02:21,15.08836821,8.5e-05,53.2175,233.4459,112.8613,247.2468,3.4481e-06,-2.33e-06,0.0,0 STARLINK-3394,1 51118U 22005Q   23134.58497571 -.00000233  00000-0  34481-5 0  9998,2 51118  53.2175 233.4459 0000850 112.8613 247.2468 15.08836821 74473,6917.89,95.438,540.343,539.167,0.0
51118.0,STARLINK-3394,PAYLOAD,2023-05-15 10:42:22,15.08837525,7.43e-05,53.2175,229.5772,98.311,261.7967,6.8636e-05,8.05e-06,0.0,0 STARLINK-3394,1 51118U 22005Q   23135.44609573  .00000805  00000-0  68636-4 0  9993,2 51118  53.2175 229.5772 0000743  98.3110 261.7967 15.08837525 73496,6917.888,95.438,540.267,539.239,0.0
51118.0,STARLINK-3394,PAYLOAD,2023-05-15 15:28:32,15.0881942,8.8e-05,53.2173,228.6837,129.7385,230.3685,0.00042707,6.512e-05,0.0,0 STARLINK-3394,1 51118U 22005Q   23135.64481769  .00006512  00000-0  42707-3 0  9991,2 51118  53.2173 228.6837 0000880 129.7385 230.3685 15.08819420 74631,6917.943,95.439,540.417,539.2,0.0
51118.0,STARLINK-3394,PAYLOAD,2023-05-16 12:08:33,15.08835094,9.6e-05,53.2165,224.8173,105.5269,254.583,9.8536e-06,-1.31e-06,0.0,0 STARLINK-3394,1 51118U 22005Q   23136.50594137 -.00000131  00000-0  98536-5 0  9996,2 51118  53.2165 224.8173 0000960 105.5269 254.5830 15.08835094 73651,6917.895,95.438,540.425,539.096,0.0
51118.0,STARLINK-3394,PAYLOAD,2023-05-16 23:16:14,15.08840032,8.72e-05,53.2163,222.7344,97.3881,262.7211,3.18e-05,2.18e-06,0.0,0 STARLINK-3394,1 51118U 22005Q   23136.96961784  .00000218  00000-0  31800-4 0  9997,2 51118  53.2163 222.7344 0000872  97.3881 262.7211 15.08840032 74839,6917.88,95.438,540.349,539.142,0.0
51118.0,STARLINK-3394,PAYLOAD,2023-05-17 11:59:19,15.08845924,7.85e-05,53.2162,220.3567,93.7672,266.341,5.0003e-05,5.08e-06,0.0,0 STARLINK-3394,1 51118U 22005Q   23137.49953472  .00000508  00000-0  50003-4 0  9999,2 51118  53.2162 220.3567 0000785  93.7672 266.3410 15.08845924 73802,6917.862,95.437,540.27,539.184,0.0
51118.0,STARLINK-3394,PAYLOAD,2023-05-18 11:50:07,15.0883774,8.5e-05,53.2162,215.896,87.2872,272.8217,5.387e-05,5.7e-06,0.0,0 STARLINK-3394,1 51118U 22005Q   23138.49313933  .00000570  00000-0  53870-4 0  9996,2 51118  53.2162 215.8960 0000850  87.2872 272.8217 15.08837740 75065,6917.887,95.438,540.34,539.164,0.0
51118.0,STARLINK-3394,PAYLOAD,2023-05-18 15:00:53,15.08838821,8.49e-05,53.2161,215.3009,89.2928,270.8162,5.7831e-05,6.33e-06,0.0,0 STARLINK-3394,1 51118U 22005Q   23138.62561841  .00000633  00000-0  57831-4 0  9995,2 51118  53.2161 215.3009 0000849  89.2928 270.8162 15.08838821 73971,6917.884,95.438,540.336,539.162,0.0
